0 FENGYUN 1C DEB
1 33693U 99025DGE 13279.75687105  .00000498  00000-0  57596-3 0  4980
2 33693 099.4177 199.1776 0247085 333.7303 081.1928 13.61823432275580
0 FENGYUN 1C DEB
1 33693U 99025DGE 13282.27520703  .00000625  00000-0  71072-3 0  4999
2 33693 099.4182 201.6110 0246798 327.3419 187.4525 13.61830163275924
0 FENGYUN 1C DEB
1 33693U 99025DGE 13287.27087279  .00000632  00000-0  71868-3 0  5015
2 33693 099.4185 206.4374 0246102 314.6540 199.0888 13.61837013276603
0 FENGYUN 1C DEB
1 33693U 99025DGE 13290.28386303  .00000723  00000-0  81623-3 0  5022
2 33693 099.4185 209.3487 0245637 306.9867 210.6000 13.61844038277015
0 FENGYUN 1C DEB
1 33693U 99025DGE 13292.75456133  .00000824  00000-0  92479-3 0  5039
2 33693 099.4186 211.7366 0245303 300.6809 083.5400 13.61848306277356
